{
  "norad_id": 47379,
  "name": "STARLINK-2099",
  "history": [
    {
      "epoch": "2026-03-28T19:41:21.928416",
      "apogee_km": 475.9950935427496,
      "perigee_km": 474.34605067474877,
      "latitude_deg": -30.48854350663355,
      "longitude_deg": 76.65769823989831,
      "semi_major_axis_km": 6853.307572108749,
      "eccentricity": 0.00012031,
      "inclination_deg": 53.158,
      "raan_deg": 284.6817,
      "arg_perigee_deg": 85.7087,
      "mean_anomaly_deg": 274.4052,
      "mean_motion_rev_day": 15.30214903
    }
  ]
}