{"fetched_at":"2026-03-29T16:36:15Z","count":15609,"tles":[{"name":"STARLINK-2099","line1":"1 47379U 21005AG  26087.82039269  .00012617  00000+0  43718-3 0  9992","line2":"2 47379  53.1580 284.6817 0001203  85.7087 274.4052 15.30214903286650","category":"Starlink"}]}